LEMUR-2-HUBBLE-4        
1 64565U 25135AP  26188.77225590  .00001069  00000+0  10646-3 0  9999
2 64565  97.7714 302.4375 0002013 183.5460 176.5746 14.93670036 56949
LEMUR-2-SEJONG-2        
1 64586U 25135BL  26188.82832657  .00002560  00000+0  22826-3 0  9996
2 64586  97.7706 303.7117 0003240 252.0265 108.0603 14.96877871 57031
LEMUR-2-HUBBLE-5        
1 64840U 25135BT  26188.24797833  .00001328  00000+0  12931-3 0  9998
2 64840  97.7733 302.5797 0004102 269.9284  90.1466 14.94195555 56904
LEMUR-2-KARENDARRELL    
1 64841U 25135BU  26188.79414569  .00005120  00000+0  41132-3 0  9990
2 64841  97.7695 304.9727 0011706 128.1814 232.0466 15.00431168 57105
LEMUR-2-LUCILLE-ROSE    
1 65403U 25135BV  26188.56749785  .00004390  00000+0  35328-3 0  9999
2 65403  97.7716 304.7812 0013915 212.5879 147.4487 15.00427742 51693
LEMUR-2-AFFIE-WAUWIE    
1 66295U 25248C   26186.82496654  .00022785  00000+0  82702-3 0  9991
2 66295  45.3926  13.9564 0008364 202.7682 157.2838 15.27976863 37441
OTTER SDM               
1 66678U 25276N   26188.72435049  .00004004  00000+0  18905-3 0  9997
2 66678  97.4202 261.8614 0004254 288.6878  71.3895 15.19997470 33538
LEMUR-2-STAS-GORBUK     
1 66686U 25276W   26188.74384779  .00004017  00000+0  19182-3 0  9993
2 66686  97.4236 261.9334 0003445 285.9321  74.1534 15.19607742 33539
LEMUR-2-TEODOR          
1 66768U 25276DG  26188.77083347  .00003789  00000+0  17255-3 0  9998
2 66768  97.4139 262.2223 0002330  95.1979 264.9522 15.21283803 33576
LEMUR-2-LAILA           
1 66776U 25276DQ  26188.74173508  .00004166  00000+0  18818-3 0  9999
2 66776  97.4165 262.3276 0002903 105.7296 254.4260 15.21509372 33574
LEMUR-2-CELIJO-SB-PK    
1 66781U 25276DW  26188.71483760  .00003905  00000+0  31654-3 0  9999
2 66781  97.5198 258.8159 0007386  82.7841 277.4223 15.00234057 25709
LEMUR-2-FINNIAN         
1 66782U 25276DX  26188.15331084  .00002687  00000+0  21743-3 0  9993
2 66782  97.5346 258.5193 0008123  28.2723 331.8940 15.00553279 22993
LEMUR-2-STARLIGHT       
1 66783U 25276DY  26188.72777348  .00004308  00000+0  35671-3 0  9991
2 66783  97.5225 258.6642 0014709  69.0260 291.2536 14.99294536 33274
LEMUR-2-TARTIFLETTE     
1 66784U 25276DZ  26188.72610794  .00003456  00000+0  28728-3 0  9991
2 66784  97.5226 258.6704 0013766  76.8058 283.4700 14.99284529 33275
LEMUR-2-VUKASIN         
1 66785U 25276EA  26188.76918075  .00003239  00000+0  26163-3 0  9999
2 66785  97.5244 259.0570 0004191  76.2705 283.8986 15.00501248 33236
LEMUR-2-HOTSPUR-TOM     
1 66786U 25276EB  26188.72003735  .00003739  00000+0  31113-3 0  9990
2 66786  97.5216 258.6413 0013963  68.0373 292.2333 14.99191668 33209
